{
  "norad_id": 65021,
  "name": "STARLINK-34778",
  "history": [
    {
      "epoch": "2026-03-28T16:20:06.487296",
      "apogee_km": 476.33869108093495,
      "perigee_km": 474.5430536783706,
      "latitude_deg": -53.09883847259776,
      "longitude_deg": 27.440541440155357,
      "semi_major_axis_km": 6853.577872379652,
      "eccentricity": 0.000131,
      "inclination_deg": 53.1576,
      "raan_deg": 206.2614,
      "arg_perigee_deg": 41.9449,
      "mean_anomaly_deg": 318.1652,
      "mean_motion_rev_day": 15.30124378
    }
  ]
}